[{"OBJECT_NAME":"STARLINK-31929","OBJECT_ID":"2024-097B","EPOCH":"2026-03-09T22:53:16.910880","MEAN_MOTION":15.27571914,"ECCENTRICITY":0.00012783,"INCLINATION":43.0019,"RA_OF_ASC_NODE":273.1735,"ARG_OF_PERICENTER":243.1631,"MEAN_ANOMALY":116.909,"EPHEMERIS_TYPE":0,"CLASSIFICATION_TYPE":"U","NORAD_CAT_ID":59836,"ELEMENT_SET_NO":999,"REV_AT_EPOCH":10195,"BSTAR":-9.713232e-6,"MEAN_MOTION_DOT":-5.29e-6,"MEAN_MOTION_DDOT":0},{"OBJECT_NAME":"SL-3 R\/B","OBJECT_ID":"1983-003B","EPOCH":"2026-03-09T21:31:00.897888","MEAN_MOTION":15.34640469,"ECCENTRICITY":0.00285789,"INCLINATION":81.155,"RA_OF_ASC_NODE":261.9078,"ARG_OF_PERICENTER":155.4571,"MEAN_ANOMALY":204.8036,"EPHEMERIS_TYPE":0,"CLASSIFICATION_TYPE":"U","NORAD_CAT_ID":13771,"ELEMENT_SET_NO":999,"REV_AT_EPOCH":35642,"BSTAR":0.00033440366,"MEAN_MOTION_DOT":0.00011405,"MEAN_MOTION_DDOT":0}]
